OBJECT_NAME,OBJECT_ID,EPOCH,MEAN_MOTION,ECCENTRICITY,INCLINATION,RA_OF_ASC_NODE,ARG_OF_PERICENTER,MEAN_ANOMALY,EPHEMERIS_TYPE,CLASSIFICATION_TYPE,NORAD_CAT_ID,ELEMENT_SET_NO,REV_AT_EPOCH,BSTAR,MEAN_MOTION_DOT,MEAN_MOTION_DDOT
STRIX-8,2026-146A,2026-07-11T16:48:17.717184,15.04415951,.00077019,41.9901,32.4539,358.9740,1.1070,0,U,69701,999,225,.20051908E-3,.266E-4,0
ELECTRON R/B,2026-146B,2026-07-10T17:23:08.135808,15.71553503,.01813482,42.0745,30.1306,348.7903,10.8938,0,U,69702,999,220,.10695781E-2,.400735E-2,.55909272E-4
ELECTRON KICK STAGE R/B,2026-146C,2026-07-10T18:22:54.717312,15.04921200,.00096373,41.9885,37.5627,354.1283,5.9430,0,U,69703,999,211,.18279807E-3,.2443E-4,0
STARLINK-38055,2026-147A,2026-07-11T14:59:04.982208,15.80817757,.00018539,97.2840,228.8037,102.0554,258.0923,0,U,69704,999,329,.10092848E-2,.197646E-2,0
STARLINK-37898,2026-147B,2026-07-11T14:57:53.751456,15.80940317,.00009389,97.2849,228.8051,48.2657,311.8692,0,U,69705,999,329,.12181022E-2,.241111E-2,0
STARLINK-37970,2026-147C,2026-07-11T14:56:48.687072,15.80820936,.0001188,97.2833,228.8050,99.0020,261.1383,0,U,69706,999,329,.10251208E-2,.200849E-2,0
STARLINK-37975,2026-147D,2026-07-11T14:55:43.163904,15.80865083,.00016694,97.2849,228.8069,83.5263,276.6195,0,U,69707,999,329,.80000981E-3,.156224E-2,0
STARLINK-37972,2026-147E,2026-07-11T14:54:39.198528,15.80818579,.00019993,97.2822,228.8075,63.4265,296.7208,0,U,69708,999,329,.91017173E-3,.177825E-2,0
STARLINK-37963,2026-147F,2026-07-11T14:53:34.095264,15.80841083,.00018082,97.2827,228.8078,77.7244,282.4227,0,U,69709,999,329,.76848057E-3,.149787E-2,0
STARLINK-37969,2026-147G,2026-07-11T14:52:28.864128,15.80805194,.0001364,97.2839,228.8109,119.2681,240.8724,0,U,69710,999,329,.94976379E-3,.185614E-2,0
STARLINK-37956,2026-147H,2026-07-11T14:51:24.036480,15.80815998,.00013275,97.2840,228.8115,109.1373,251.0039,0,U,69711,999,329,.94925584E-3,.185605E-2,0
STARLINK-38043,2026-147J,2026-07-11T14:50:19.395456,15.80809006,.00019581,97.2830,228.8125,70.7573,289.3907,0,U,69712,999,329,.91541012E-3,.17879E-2,0
STARLINK-38020,2026-147K,2026-07-11T14:49:12.815616,15.80900509,.0000736,97.2834,228.8161,76.1831,283.9519,0,U,69713,999,329,.11658931E-2,.230058E-2,0
STARLINK-38059,2026-147L,2026-07-11T14:48:09.058464,15.80848920,.00015024,97.2844,228.8134,95.7332,264.4107,0,U,69714,999,329,.63235677E-3,.12289E-2,0
STARLINK-38061,2026-147M,2026-07-11T14:47:03.918048,15.80779276,.00015599,97.2857,228.8164,158.1317,202.0018,0,U,69715,999,329,.75763217E-3,.147209E-2,0
STARLINK-38060,2026-147N,2026-07-11T14:45:59.701248,15.80832449,.00019852,97.2880,228.8114,101.9510,258.1981,0,U,69716,999,329,.14129172E-2,.279567E-2,0
STARLINK-38040,2026-147P,2026-07-11T16:16:03.304128,15.80840591,.00018029,97.2850,228.8856,156.8921,203.2429,0,U,69717,999,330,.15348499E-2,.304702E-2,0
STARLINK-37989,2026-147Q,2026-07-10T12:53:35.554848,15.81725931,.000176,97.2849,227.6798,163.9316,196.2009,0,U,69718,999,312,.15133E-2,.313152E-2,0
STARLINK-38039,2026-147R,2026-07-10T12:53:07.505952,15.81001041,.00012944,97.2855,227.6808,335.4308,24.6899,0,U,69719,999,312,.17182608E-2,.345258E-2,0
STARLINK-38003,2026-147S,2026-07-11T14:41:39.487776,15.80849704,.00014965,97.2838,228.8191,129.8381,230.3019,0,U,69720,999,329,.58602163E-3,.113759E-2,0
STARLINK-38014,2026-147T,2026-07-11T17:42:53.194752,15.80858501,.00018278,97.2846,228.9571,109.7380,250.4086,0,U,69721,999,331,.11400383E-2,.224376E-2,0
STARLINK-37915,2026-147U,2026-07-11T14:39:29.968128,15.80901954,.00011946,97.2855,228.8240,79.4953,280.6450,0,U,69722,999,329,.91726843E-3,.179933E-2,0
STARLINK-38007,2026-147V,2026-07-11T17:45:14.992704,15.80849785,.0001807,97.2842,228.9537,100.3949,259.7523,0,U,69723,999,331,.9525356E-3,.186559E-2,0
STARLINK-38008,2026-147W,2026-07-11T16:08:28.890240,15.80841230,.00013694,97.2839,228.8908,122.6606,237.4795,0,U,69724,999,330,.74609459E-3,.145343E-2,0
STARLINK-38021,2026-147X,2026-07-11T16:07:24.627648,15.80995338,.0002262,97.2836,228.8976,1.4335,358.6939,0,U,69725,999,330,.17323915E-2,.348122E-2,0
STARLINK-38015,2026-147Y,2026-07-11T14:35:10.267008,15.80825948,.00014902,97.2832,228.8270,85.4253,274.7186,0,U,69726,999,329,.11428618E-2,.224602E-2,0
STARLINK-38010,2026-147Z,2026-07-11T18:00:02.000160,15.75239512,.00012555,97.2845,228.9522,103.5070,286.3303,0,U,69727,999,328,-.91609264E-3,-.134924E-2,0
SXM-11,2026-148A,2026-07-11T04:39:00.608256,1.00471175,.0001165,0.1241,265.9539,38.0982,293.8842,0,U,69728,999,28,0,-.9E-7,0
HAIYANG-2E,2026-149A,2026-07-11T14:30:44.105760,13.79314915,.00015732,99.3452,199.5778,95.5486,264.5846,0,U,69737,999,133,-.53566401E-4,-.99E-6,0
CZ-4B R/B,2026-149B,2026-07-11T14:57:33.151104,14.30066728,.01982888,99.3217,200.3868,340.3779,18.9846,0,U,69738,999,162,.3718633E-4,.61E-6,0
